     2.100          NAVIGATION                              RINEX VERSION / TYPE
fic2rin                                 03/24/2015 00:31:21 PGM / RUN BY / DATE
                                                            END OF HEADER
19 15  3 23 16  0  0.0 -.504919793457D-03 -.136424205266D-11  .000000000000D+00
     .430000000000D+02  .336875000000D+02  .426482050404D-08  .263972698069D+01
     .175647437572D-05  .111134429462D-01  .870414078236D-05  .515370992470D+04
     .144000000000D+06 -.968575477600D-07 -.175841054534D+01 -.201165676117D-06
     .968518985172D+00  .216812500000D+03  .523714984934D+00 -.786175604512D-08
     .601810782120D-09  .100000000000D+01  .183700000000D+04  .000000000000D+00
     .240000000000D+01  .000000000000D+00 -.149011611938D-07  .430000000000D+02
     .136806000000D+06  .400000000000D+01
20 15  3 23 16  0  0.0  .302690546960D-03  .397903932026D-11  .000000000000D+00
     .700000000000D+02 -.853125000000D+01  .522771775543D-08 -.213523433409D+01
    -.573694705963D-06  .575231597759D-02  .110063701868D-04  .515577785492D+04
     .144000000000D+06  .987201929092D-07  .171321420476D+00  .521540641785D-07
     .926848610713D+00  .144343750000D+03  .122768816232D+01 -.820927052050D-08
    -.305369862738D-09  .100000000000D+01  .183700000000D+04  .000000000000D+00
     .240000000000D+01  .000000000000D+00 -.838190317154D-08  .700000000000D+02
     .136806000000D+06  .400000000000D+01
21 15  3 23 16  0  0.0 -.429292209446D-03 -.386535248253D-11  .000000000000D+00
     .450000000000D+02 -.150625000000D+02  .573381026478D-08 -.313405226471D+00
    -.622123479843D-06  .224351045908D-01  .530481338501D-05  .515358201027D+04
     .144000000000D+06 -.163912773132D-06 -.819483809396D+00  .312924385071D-06
     .933561856930D+00  .268656250000D+03 -.193075317919D+01 -.909502170130D-08
     .771460705864D-10  .100000000000D+01  .183700000000D+04  .000000000000D+00
     .340000000000D+01  .000000000000D+00 -.116415321827D-07  .450000000000D+02
     .136806000000D+06  .400000000000D+01
22 15  3 23 16  0  0.0  .331723131239D-03  .432009983342D-11  .000000000000D+00
     .550000000000D+02 -.195937500000D+02  .530200656414D-08 -.181815256188D+01
    -.102259218693D-05  .766203575768D-02  .109765678644D-04  .515369768524D+04
     .144000000000D+06  .134110450745D-06  .225178948521D+00 -.298023223877D-07
     .923475750677D+00  .143625000000D+03 -.206463507206D+01 -.826605860023D-08
    -.314298806093D-09  .100000000000D+01  .183700000000D+04  .000000000000D+00
     .240000000000D+01  .000000000000D+00 -.176951289177D-07  .550000000000D+02
     .136806000000D+06  .400000000000D+01
23 15  3 23 16  0  0.0 -.970363616943D-04 -.250111042988D-11  .000000000000D+00
     .760000000000D+02  .104875000000D+03  .490663295239D-08  .221028468236D+01
     .545382499695D-05  .989413820207D-02  .788830220699D-05  .515365218735D+04
     .144000000000D+06 -.286847352982D-06  .129461140965D+01 -.745058059692D-08
     .948806187460D+00  .225125000000D+03 -.270631161660D+01 -.830070290045D-08
     .291440711104D-09  .100000000000D+01  .183700000000D+04  .000000000000D+00
     .240000000000D+01  .000000000000D+00 -.200234353542D-07  .760000000000D+02
     .136806000000D+06  .400000000000D+01
24 15  3 23 16  0  0.0 -.454569235444D-04 -.568434188608D-12  .000000000000D+00
     .800000000000D+02 -.142187500000D+02  .517842998811D-08  .148644920435D+01
    -.583007931709D-06  .317316909786D-02  .204518437386D-05  .515367783737D+04
     .144000000000D+06 -.186264514923D-07  .232201731965D+01  .651925802231D-07
     .953942046647D+00  .336156250000D+03  .330232908349D+00 -.874072122898D-08
    -.230723896291D-09  .100000000000D+01  .183700000000D+04  .000000000000D+00
     .240000000000D+01  .000000000000D+00  .232830643654D-08  .800000000000D+02
     .136806000000D+06  .400000000000D+01
25 15  3 23 16  0  0.0 -.133481808007D-04 -.318323145621D-11  .000000000000D+00
     .610000000000D+02 -.980937500000D+02  .397909431668D-08 -.493576780528D+00
    -.517256557941D-05  .439859030303D-02  .102762132883D-04  .515371011162D+04
     .144000000000D+06  .372529029846D-07 -.290005919527D+01  .558793544769D-07
     .978288220443D+00  .188375000000D+03  .673776264617D+00 -.794890253227D-08
    -.320370487574D-09  .100000000000D+01  .183700000000D+04  .000000000000D+00
     .240000000000D+01  .000000000000D+00  .512227416039D-08  .610000000000D+02
     .136806000000D+06  .400000000000D+01
27 15  3 23 16  0  0.0  .598980113864D-04  .261479726760D-11  .000000000000D+00
     .160000000000D+02  .269062500000D+02  .427410660512D-08 -.275135166779D+01
     .148452818394D-05  .220084621105D-02  .961683690548D-05  .515368852043D+04
     .144000000000D+06  .521540641785D-07 -.185564948853D+01 -.372529029846D-08
     .966359536685D+00  .199625000000D+03  .143567591138D+00 -.791497254752D-08
     .594667627436D-09  .100000000000D+01  .183700000000D+04  .000000000000D+00
     .240000000000D+01  .000000000000D+00  .186264514923D-08  .160000000000D+02
     .136806000000D+06  .400000000000D+01
28 15  3 23 16  0  0.0  .427942257375D-03  .261479726760D-11  .000000000000D+00
     .172000000000D+03 -.620000000000D+02  .355479092845D-08 -.204228557956D+01
    -.327453017235D-05  .195893070195D-01  .113490968943D-04  .515369351768D+04
     .144000000000D+06  .363215804100D-06 -.283014835908D+01  .134110450745D-06
     .988890287661D+00  .171593750000D+03 -.166587785057D+01 -.732137639329D-08
    -.197151069276D-09  .100000000000D+01  .183700000000D+04  .000000000000D+00
     .240000000000D+01  .000000000000D+00 -.111758708954D-07  .172000000000D+03
     .136806000000D+06  .400000000000D+01
29 15  3 23 16  0  0.0  .599770341069D-03  .250111042988D-11  .000000000000D+00
     .440000000000D+02  .216562500000D+02  .424731977506D-08 -.868738862575D-01
     .115111470222D-05  .138759380206D-02  .946782529354D-05  .515378771400D+04
     .144000000000D+06  .465661287308D-07 -.179894813259D+01 -.353902578354D-07
     .972286378122D+00  .203687500000D+03 -.728172136275D+00 -.792318717541D-08
     .565023535498D-09  .100000000000D+01  .183700000000D+04  .000000000000D+00
     .240000000000D+01  .000000000000D+00 -.977888703346D-08  .440000000000D+02
     .136806000000D+06  .400000000000D+01
30 15  3 23 16  0  0.0 -.778553076088D-04  .295585778076D-11  .000000000000D+00
     .650000000000D+02 -.425625000000D+02  .495270630010D-08  .845024315363D+00
    -.232271850109D-05  .113097182475D-02  .231340527534D-05  .515375907516D+04
     .144000000000D+06 -.745058059692D-08  .241202479253D+01 -.540167093277D-07
     .956495025949D+00  .327906250000D+03  .286335241261D+01 -.858928634968D-08
    -.345728686702D-09  .100000000000D+01  .183700000000D+04  .000000000000D+00
     .240000000000D+01  .000000000000D+00  .325962901115D-08  .650000000000D+02
     .136806000000D+06  .400000000000D+01
31 15  3 23 16  0  0.0  .320448540151D-03 -.909494701773D-12  .000000000000D+00
     .260000000000D+02 -.188437500000D+02  .461090634847D-08  .543633426503D+00
    -.119768083096D-05  .820660172030D-02  .261329114437D-05  .515374558830D+04
     .144000000000D+06  .819563865662D-07  .236924250231D+01 -.502914190292D-07
     .975644472926D+00  .335000000000D+03 -.529147826731D+00 -.847392440154D-08
    -.253939149013D-09  .100000000000D+01  .183700000000D+04  .000000000000D+00
     .240000000000D+01  .000000000000D+00 -.135041773319D-07  .260000000000D+02
     .136806000000D+06  .400000000000D+01
32 15  3 23 16  0  0.0 -.194153282791D-03  .943600753089D-11  .000000000000D+00
     .660000000000D+02 -.765625000000D+01  .478555648049D-08  .119745434305D+01
    -.417232513428D-06  .112706683576D-01  .116527080536D-04  .515380463982D+04
     .144000000000D+06 -.931322574615D-08  .324444279024D+00  .208616256714D-06
     .947536199017D+00  .151187500000D+03  .261160837711D-01 -.806819321549D-08
    -.400373820034D-09  .100000000000D+01  .183700000000D+04  .000000000000D+00
     .240000000000D+01  .000000000000D+00 -.372529029846D-08  .660000000000D+02
     .136806000000D+06  .400000000000D+01
 3 15  3 23 15 59 44.0  .267654657364D-03  .161435309565D-10  .000000000000D+00
     .100000000000D+02 -.108750000000D+02  .452197407266D-08 -.282906455330D+01
    -.555068254471D-06  .940121593885D-03  .117942690849D-04  .515372895622D+04
     .143984000000D+06 -.167638063431D-07  .241806906971D+00 -.260770320892D-07
     .959845280974D+00  .155968750000D+03 -.285565736843D+01 -.794854537453D-08
    -.302155443130D-09  .100000000000D+01  .183700000000D+04  .000000000000D+00
     .240000000000D+01  .000000000000D+00  .139698386192D-08  .100000000000D+02
     .138936000000D+06  .400000000000D+01
20 15  3 23 15 59 44.0  .302691478282D-03  .409272615798D-11  .000000000000D+00
     .100000000000D+01 -.853125000000D+01  .522807491316D-08 -.213756540334D+01
    -.573694705963D-06  .575231283437D-02  .110063701868D-04  .515577785492D+04
     .143984000000D+06  .987201929092D-07  .171321534584D+00  .521540641785D-07
     .926848616565D+00  .144343750000D+03  .122768831885D+01 -.820927052050D-08
    -.305012705003D-09  .100000000000D+01  .183700000000D+04  .000000000000D+00
     .240000000000D+01  .000000000000D+00 -.838190317154D-08  .100000000000D+01
     .139956000000D+06  .400000000000D+01
 3 15  3 23 17 59 44.0  .267771072686D-03  .161435309565D-10  .000000000000D+00
     .110000000000D+02 -.193750000000D+02  .446447167745D-08 -.177982287496D+01
    -.127032399178D-05  .941094825976D-03  .113192945719D-04  .515372652626D+04
     .151184000000D+06 -.130385160446D-07  .241749671764D+00 -.279396772385D-07
     .959843111467D+00  .159875000000D+03 -.285475113749D+01 -.794961684774D-08
    -.301798285396D-09  .100000000000D+01  .183700000000D+04  .000000000000D+00
     .240000000000D+01  .000000000000D+00  .139698386192D-08  .110000000000D+02
     .144006000000D+06  .400000000000D+01
